[{"OBJECT_NAME":"IRIDE FM3","OBJECT_ID":"2025-276AH","EPOCH":"2026-03-09T16:50:39.561792","MEAN_MOTION":15.19640747,"ECCENTRICITY":6.614e-5,"INCLINATION":97.4248,"RA_OF_ASC_NODE":144.0388,"ARG_OF_PERICENTER":25.5203,"MEAN_ANOMALY":334.6065,"EPHEMERIS_TYPE":0,"CLASSIFICATION_TYPE":"U","NORAD_CAT_ID":66697,"ELEMENT_SET_NO":999,"REV_AT_EPOCH":1532,"BSTAR":0.00053468089,"MEAN_MOTION_DOT":0.00011338,"MEAN_MOTION_DDOT":0},{"OBJECT_NAME":"OBJECT AL","OBJECT_ID":"2025-313AL","EPOCH":"2026-03-09T21:47:37.500288","MEAN_MOTION":15.21924199,"ECCENTRICITY":0.00104977,"INCLINATION":97.3994,"RA_OF_ASC_NODE":145.2165,"ARG_OF_PERICENTER":356.408,"MEAN_ANOMALY":3.7079,"EPHEMERIS_TYPE":0,"CLASSIFICATION_TYPE":"U","NORAD_CAT_ID":67282,"ELEMENT_SET_NO":999,"REV_AT_EPOCH":1085,"BSTAR":0.00031499463,"MEAN_MOTION_DOT":7.118e-5,"MEAN_MOTION_DDOT":0}]
